{
"type": "FeatureCollection",
"name": "11_Buffer_3km_Patios_electricos",
"crs": { "type": "name", "properties": { "name": "urn:ogc:def:crs:EPSG::3116" } },
"features": [
{ "type": "Feature", "properties": { "nom_patio": "Usme I y II", "Id": 1 }, "geometry": { "type": "MultiPolygon", "coordinates": [ [ [ [ 995362.500886512105353, 982892.185492262127809 ], [ 994904.753298507886939, 982782.290019362117164 ], [ 994435.449903387227096, 982745.35504114755895 ], [ 993966.146508266567253, 982782.290019362117164 ], [ 993508.398920262348838, 982892.185492262127809 ], [ 993073.478404168621637, 983072.335468582459725 ], [ 992672.094146509771235, 983318.304058022680692 ], [ 992314.129559827619232, 983624.034697587951086 ], [ 992008.398920262348838, 983981.99928427010309 ], [ 991762.430330822127871, 984383.383541928953491 ], [ 991582.280354501795955, 984818.304058022680692 ], [ 991472.38488160178531, 985276.051646026899107 ], [ 991435.449903387227096, 985745.35504114755895 ], [ 991472.38488160178531, 986214.658436268218793 ], [ 991582.280354501795955, 986672.406024272437207 ], [ 991762.430330822127871, 987107.326540366164409 ], [ 992008.398920262348838, 987508.71079802501481 ], [ 992314.129559827619232, 987866.675384707166813 ], [ 992672.094146509771235, 988172.406024272437207 ], [ 993073.478404168621637, 988418.374613712658174 ], [ 993164.653148439712822, 988456.140429335646331 ], [ 993287.132475003250875, 988560.747656522202305 ], [ 993688.516732662101276, 988806.716245962423272 ], [ 994123.437248755828477, 988986.866222282755189 ], [ 994581.184836760046892, 989096.761695182765834 ], [ 995050.488231880706735, 989133.696673397324048 ], [ 995519.791627001366578, 989096.761695182765834 ], [ 995977.539215005584992, 988986.866222282755189 ], [ 996412.459731099312194, 988806.716245962423272 ], [ 996813.843988758162595, 988560.747656522202305 ], [ 997171.808575440314598, 988255.017016956931911 ], [ 997477.539215005584992, 987897.052430274779908 ], [ 997723.507804445805959, 987495.668172615929507 ], [ 997903.657780766137876, 987060.747656522202305 ], [ 998013.553253666148521, 986603.000068517983891 ], [ 998050.488231880706735, 986133.696673397324048 ], [ 998013.553253666148521, 985664.393278276664205 ], [ 997903.657780766137876, 985206.64569027244579 ], [ 997723.507804445805959, 984771.725174178718589 ], [ 997477.539215005584992, 984370.340916519868188 ], [ 997171.808575440314598, 984012.376329837716185 ], [ 996813.843988758162595, 983706.64569027244579 ], [ 996412.459731099312194, 983460.677100832224824 ], [ 996321.284986828221008, 983422.911285209236667 ], [ 996198.805660264682956, 983318.304058022680692 ], [ 995797.421402605832554, 983072.335468582459725 ], [ 995362.500886512105353, 982892.185492262127809 ] ] ] ] } },
{ "type": "Feature", "properties": { "nom_patio": "Perdomo", "Id": 2 }, "geometry": { "type": "MultiPolygon", "coordinates": [ [ [ [ 991082.419201193144545, 998244.235130582004786 ], [ 990836.450611752923578, 997842.850872923154384 ], [ 990530.719972187653184, 997484.886286241002381 ], [ 990172.755385505501181, 997179.155646675731987 ], [ 989771.371127846650779, 996933.18705723551102 ], [ 989336.450611752923578, 996753.037080915179104 ], [ 988878.703023748705164, 996643.141608015168458 ], [ 988409.399628628045321, 996606.206629800610244 ], [ 987940.096233507385477, 996643.141608015168458 ], [ 987482.348645503167063, 996753.037080915179104 ], [ 987047.428129409439862, 996933.18705723551102 ], [ 986646.04387175058946, 997179.155646675731987 ], [ 986288.079285068437457, 997484.886286241002381 ], [ 985982.348645503167063, 997842.850872923154384 ], [ 985736.380056062946096, 998244.235130582004786 ], [ 985556.23007974261418, 998679.155646675731987 ], [ 985446.334606842603534, 999136.903234679950401 ], [ 985409.399628628045321, 999606.206629800610244 ], [ 985446.334606842603534, 1000075.510024921270087 ], [ 985556.23007974261418, 1000533.257612925488502 ], [ 985736.380056062946096, 1000968.178129019215703 ], [ 985982.348645503167063, 1001369.562386678066105 ], [ 986288.079285068437457, 1001727.526973360218108 ], [ 986646.04387175058946, 1002033.257612925488502 ], [ 987047.428129409439862, 1002279.226202365709469 ], [ 987482.348645503167063, 1002459.376178686041385 ], [ 987940.096233507385477, 1002569.27165158605203 ], [ 988409.399628628045321, 1002606.206629800610244 ], [ 988878.703023748705164, 1002569.27165158605203 ], [ 989336.450611752923578, 1002459.376178686041385 ], [ 989771.371127846650779, 1002279.226202365709469 ], [ 990172.755385505501181, 1002033.257612925488502 ], [ 990530.719972187653184, 1001727.526973360218108 ], [ 990836.450611752923578, 1001369.562386678066105 ], [ 991082.419201193144545, 1000968.178129019215703 ], [ 991262.569177513476461, 1000533.257612925488502 ], [ 991372.464650413487107, 1000075.510024921270087 ], [ 991409.399628628045321, 999606.206629800610244 ], [ 991372.464650413487107, 999136.903234679950401 ], [ 991262.569177513476461, 998679.155646675731987 ], [ 991082.419201193144545, 998244.235130582004786 ] ] ] ] } },
{ "type": "Feature", "properties": { "nom_patio": "Fontibón", "Id": 3 }, "geometry": { "type": "MultiPolygon", "coordinates": [ [ [ [ 996449.56268778827507, 1008269.030465463874862 ], [ 996203.594098348054104, 1007867.64620780502446 ], [ 995897.863458782783709, 1007509.681621122872457 ], [ 995539.898872100631706, 1007203.950981557602063 ], [ 995138.514614441781305, 1006957.982392117381096 ], [ 994703.594098348054104, 1006777.83241579704918 ], [ 994245.846510343835689, 1006667.936942897038534 ], [ 993776.543115223175846, 1006631.00196468248032 ], [ 993307.239720102516003, 1006667.936942897038534 ], [ 992849.492132098297589, 1006777.83241579704918 ], [ 992414.571616004570387, 1006957.982392117381096 ], [ 992054.172858030535281, 1007178.835035048425198 ], [ 991602.558326180791482, 1007143.292200565105304 ], [ 991133.254931060131639, 1007180.227178779663518 ], [ 990675.507343055913225, 1007290.122651679674163 ], [ 990240.586826962186024, 1007470.272628 ], [ 989839.202569303335622, 1007716.241217440227047 ], [ 989481.237982621183619, 1008021.971857005497441 ], [ 989175.507343055913225, 1008379.936443687649444 ], [ 988929.538753615692258, 1008781.320701346499845 ], [ 988915.973253967007622, 1008814.070714578730986 ], [ 988552.19854697806295, 1009036.992141726892442 ], [ 988194.233960295910947, 1009342.722781292162836 ], [ 987888.503320730640553, 1009700.687367974314839 ], [ 987642.534731290419586, 1010102.07162563316524 ], [ 987462.38475497008767, 1010536.992141726892442 ], [ 987352.489282070077024, 1010994.739729731110856 ], [ 987315.55430385551881, 1011464.043124851770699 ], [ 987352.489282070077024, 1011933.346519972430542 ], [ 987462.38475497008767, 1012391.094107976648957 ], [ 987642.534731290419586, 1012826.014624070376158 ], [ 987689.371476433007047, 1012902.445245650946163 ], [ 987706.92633846681565, 1012944.826431658584625 ], [ 987952.894927907036617, 1013346.210689317435026 ], [ 988258.625567472307011, 1013704.175275999587029 ], [ 988616.590154154459015, 1014009.905915564857423 ], [ 989017.974411813309416, 1014255.87450500507839 ], [ 989452.894927907036617, 1014436.024481325410306 ], [ 989910.642515911255032, 1014545.919954225420952 ], [ 990379.945911031914875, 1014582.854932439979166 ], [ 990849.249306152574718, 1014545.919954225420952 ], [ 991306.996894156793132, 1014436.024481325410306 ], [ 991311.704673238913529, 1014434.07445538090542 ], [ 991423.54666679201182, 1014407.223568355664611 ], [ 991858.467182885739021, 1014227.073592035332695 ], [ 992259.851440544589423, 1013981.105002595111728 ], [ 992617.816027226741426, 1013675.374363029841334 ], [ 992923.54666679201182, 1013317.409776347689331 ], [ 993169.515256232232787, 1012916.025518688838929 ], [ 993294.599846701021306, 1012614.04460393532645 ], [ 993324.928583373432048, 1012595.459130199160427 ], [ 993776.543115223175846, 1012631.00196468248032 ], [ 994245.846510343835689, 1012594.066986467922106 ], [ 994703.594098348054104, 1012484.171513567911461 ], [ 995138.514614441781305, 1012304.021537247579545 ], [ 995539.898872100631706, 1012058.052947807358578 ], [ 995897.863458782783709, 1011752.322308242088184 ], [ 996203.594098348054104, 1011394.357721559936181 ], [ 996449.56268778827507, 1010992.973463901085779 ], [ 996629.712664108606987, 1010558.052947807358578 ], [ 996739.608137008617632, 1010100.305359803140163 ], [ 996776.543115223175846, 1009631.00196468248032 ], [ 996739.608137008617632, 1009161.698569561820477 ], [ 996629.712664108606987, 1008703.950981557602063 ], [ 996449.56268778827507, 1008269.030465463874862 ] ] ] ] } },
{ "type": "Feature", "properties": { "nom_patio": "Las Mercedes", "Id": 4 }, "geometry": { "type": "MultiPolygon", "coordinates": [ [ [ [ 1002141.134609112283215, 1016987.418524230248295 ], [ 1001835.403969547012821, 1016629.453937548096292 ], [ 1001477.439382864860818, 1016323.723297982825898 ], [ 1001076.055125206010416, 1016077.754708542604931 ], [ 1000641.134609112283215, 1015897.604732222273014 ], [ 1000183.387021108064801, 1015787.709259322262369 ], [ 999714.083625987404957, 1015750.774281107704155 ], [ 999244.780230866745114, 1015787.709259322262369 ], [ 998787.0326428625267, 1015897.604732222273014 ], [ 998352.112126768799499, 1016077.754708542604931 ], [ 997950.727869109949097, 1016323.723297982825898 ], [ 997592.763282427797094, 1016629.453937548096292 ], [ 997287.0326428625267, 1016987.418524230248295 ], [ 997041.064053422305733, 1017388.802781889098696 ], [ 996860.914077101973817, 1017823.723297982825898 ], [ 996751.018604201963171, 1018281.470885987044312 ], [ 996714.083625987404957, 1018750.774281107704155 ], [ 996751.018604201963171, 1019220.077676228363998 ], [ 996860.914077101973817, 1019677.825264232582413 ], [ 997041.064053422305733, 1020112.745780326309614 ], [ 997287.0326428625267, 1020514.130037985160016 ], [ 997592.763282427797094, 1020872.094624667312019 ], [ 997950.727869109949097, 1021177.825264232582413 ], [ 998352.112126768799499, 1021423.79385367280338 ], [ 998787.0326428625267, 1021603.943829993135296 ], [ 999244.780230866745114, 1021713.839302893145941 ], [ 999714.083625987404957, 1021750.774281107704155 ], [ 1000183.387021108064801, 1021713.839302893145941 ], [ 1000641.134609112283215, 1021603.943829993135296 ], [ 1001076.055125206010416, 1021423.79385367280338 ], [ 1001477.439382864860818, 1021177.825264232582413 ], [ 1001835.403969547012821, 1020872.094624667312019 ], [ 1002141.134609112283215, 1020514.130037985160016 ], [ 1002387.103198552504182, 1020112.745780326309614 ], [ 1002567.253174872836098, 1019677.825264232582413 ], [ 1002677.148647772846743, 1019220.077676228363998 ], [ 1002714.083625987404957, 1018750.774281107704155 ], [ 1002677.148647772846743, 1018281.470885987044312 ], [ 1002567.253174872836098, 1017823.723297982825898 ], [ 1002387.103198552504182, 1017388.802781889098696 ], [ 1002141.134609112283215, 1016987.418524230248295 ] ] ] ] } }
]
}
