{
"type": "FeatureCollection",
"name": "12_Patios_electricos_TM",
"crs": { "type": "name", "properties": { "name": "urn:ogc:def:crs:EPSG::3116" } },
"features": [
{ "type": "Feature", "properties": { "objectid": 19, "id_patio": "PZ001", "nom_patio": "Las Mercedes", "prop_suelo": "Enel Codensa", "servicio": "Zonal (alimentacion)", "compartido": "No", "tip_patio": "Definitivo", "form_tm": "Aval", "rad_av_tm": "2022-EE-11611", "link_av_tm": "No aplica", "direccion": "CL 171 93 95", "area_ha": "1.3", "chip": "AAA0141DTDM", "latitud": "4.765765281825321", "longitud": "-74.08008842786747", "link_loc": "https://goo.gl/maps/8v1JbHDKAz9EuG1ZA", "est_ener": "Electrico", "clas_ener": "2", "cap_eq_pad": "98", "cap_eq_bia": "0", "cap_total": "98", "uso_pad_eq": "98", "uso_bia_eq": "0", "uso_total": "98", "ind_ocup": "1.0", "ind_a_bus": "133.0", "comp": "2", "esta_oper": 1, "globalid": "{63BB2E55-9FE7-483B-B274-4F77F8CDA2C9}", "Clase": "1" }, "geometry": { "type": "Point", "coordinates": [ 999714.083625987404957, 1018750.774281107704155 ] } },
{ "type": "Feature", "properties": { "objectid": 32, "id_patio": "PZ040", "nom_patio": "Aeropuerto", "prop_suelo": "Enel Codensa", "servicio": "Zonal (UCE)", "compartido": "No", "tip_patio": "Definitivo", "form_tm": "Aval", "rad_av_tm": "2022-EE-11611", "link_av_tm": "No aplica", "direccion": "KR 100 24D 15", "area_ha": "1.5", "chip": "AAA0078DWHY", "latitud": "4.683292454142332", "longitud": "-74.13360382678655", "link_loc": "https://goo.gl/maps/qR4nS3am35CvcHyt7", "est_ener": "Electrico", "clas_ener": "2", "cap_eq_pad": "126", "cap_eq_bia": "0", "cap_total": "126", "uso_pad_eq": "126", "uso_bia_eq": "0", "uso_total": "126", "ind_ocup": "1.0", "ind_a_bus": "119.0", "comp": "2", "esta_oper": 1, "globalid": "{8A0FDB8E-B19B-4173-A873-F132BF79F83F}", "Clase": "3" }, "geometry": { "type": "Point", "coordinates": [ 993776.543115223175846, 1009631.00196468248032 ] } },
{ "type": "Feature", "properties": { "objectid": 34, "id_patio": "PZ039", "nom_patio": "El Refugio", "prop_suelo": "Enel Codensa", "servicio": "Zonal (alimentacion)", "compartido": "No", "tip_patio": "Definitivo", "form_tm": "Aval", "rad_av_tm": "2022-EE-11611", "link_av_tm": "No aplica", "direccion": "AK 116 19A 49", "area_ha": "1.2", "chip": "AAA0268FZRU", "latitud": "4.687923382760212", "longitud": "-74.15319851522823", "link_loc": "https://goo.gl/maps/qnRNa2Cgazj8FYnWA", "est_ener": "Electrico", "clas_ener": "2", "cap_eq_pad": "101", "cap_eq_bia": "0", "cap_total": "101", "uso_pad_eq": "101", "uso_bia_eq": "0", "uso_total": "101", "ind_ocup": "1.0", "ind_a_bus": "119.0", "comp": "2", "esta_oper": 1, "globalid": "{133F029E-068E-4B98-B3E7-098D67DDE67A}", "Clase": "2" }, "geometry": { "type": "Point", "coordinates": [ 991602.558326180791482, 1010143.292200565105304 ] } },
{ "type": "Feature", "properties": { "objectid": 35, "id_patio": "PZ041", "nom_patio": "Usme", "prop_suelo": "Enel Codensa", "servicio": "Zonal (alimentacion)", "compartido": "No", "tip_patio": "Definitivo", "form_tm": "Aval", "rad_av_tm": "2022-EE-11611", "link_av_tm": "No aplica", "direccion": "KR 14 139 64 SUR", "area_ha": "1.7", "chip": "AAA0020ORWW/AAA0137LLHK", "latitud": "4.467292232539253", "longitud": "-74.1276510562187", "link_loc": "https://goo.gl/maps/kxJJKcuWk4Ayu27R8", "est_ener": "Electrico", "clas_ener": "2", "cap_eq_pad": "129", "cap_eq_bia": "0", "cap_total": "129", "uso_pad_eq": "129", "uso_bia_eq": "0", "uso_total": "129", "ind_ocup": "1.0", "ind_a_bus": "132.0", "comp": "2", "esta_oper": 1, "globalid": "{49425FB3-359B-42DF-8CD8-5145FC2AFCD7}", "Clase": "4" }, "geometry": { "type": "Point", "coordinates": [ 994435.449903387227096, 985745.35504114755895 ] } },
{ "type": "Feature", "properties": { "objectid": 45, "id_patio": "PZ047", "nom_patio": "Venecia", "prop_suelo": "ZMP fontibón III S.A.S", "servicio": "Zonal (UCE)", "compartido": "No", "tip_patio": "Definitivo", "form_tm": "Aval", "rad_av_tm": "2022-EE-06774", "link_av_tm": "https://gis.transmilenio.gov.co/linkRadicadoAvalTM/PZ047_UF6_-_FONTIBON_III_-_VENECIA.pdf", "direccion": "AC 31 135B 20", "area_ha": "2.0", "chip": "AAAO140JXBS", "latitud": "4.700940230557407", "longitud": "-74.16421958494503", "link_loc": "https://www.google.com/maps/place/Green+Movil/@4.7004667,-74.1621504,65m/data=!3m1!1e3!4m5!3m4!1s0x8e3f9d961a5184e3:0x3d32655de4fcd8bc!8m2!3d4.7004939!4d-74.1621875", "est_ener": "Electrico", "clas_ener": "2", "cap_eq_pad": "148", "cap_eq_bia": "0", "cap_total": "148", "uso_pad_eq": "148", "uso_bia_eq": "0", "uso_total": "148", "ind_ocup": "1.0", "ind_a_bus": "135.0", "comp": "2", "esta_oper": 1, "globalid": "{B283B0CE-B07F-4252-B3B7-D6D7D92C7AD7}", "Clase": "5" }, "geometry": { "type": "Point", "coordinates": [ 990379.945911031914875, 1011582.854932439979166 ] } },
{ "type": "Feature", "properties": { "objectid": 46, "id_patio": "PZ049", "nom_patio": "Escritorio IV", "prop_suelo": "Fontibón ZE", "servicio": "Zonal (UCE)", "compartido": "No", "tip_patio": "Definitivo", "form_tm": "Aval", "rad_av_tm": "2022-EE-02106", "link_av_tm": "No aplica", "direccion": "AC 31 135B 20", "area_ha": "2.2", "chip": "AAAO140JXBS", "latitud": "4.699865736372333", "longitud": "-74.16479983567608", "link_loc": "https://www.google.com/maps/place/4%C2%B042'01.7%22N+74%C2%B009'44.1%22W/@4.7004366,-74.1619405,262m/data=!3m1!1e3!4m6!3m5!1s0x0:0x9da9be041be8ac89!7e2!8m2!3d4.7004581!4d-74.162249", "est_ener": "Electrico", "clas_ener": "2", "cap_eq_pad": "144", "cap_eq_bia": "0", "cap_total": "144", "uso_pad_eq": "144", "uso_bia_eq": "0", "uso_total": "144", "ind_ocup": "1.0", "ind_a_bus": "153.0", "comp": "2", "esta_oper": 1, "globalid": "{CD7F5A20-D877-4D93-B22E-7F8AA9A56F3E}", "Clase": "6" }, "geometry": { "type": "Point", "coordinates": [ 990315.55430385551881, 1011464.043124851770699 ] } },
{ "type": "Feature", "properties": { "objectid": 47, "id_patio": "PZ052", "nom_patio": "Perdomo", "prop_suelo": "VIP Green Movility", "servicio": "Zonal (UCE)", "compartido": "No", "tip_patio": "Definitivo", "form_tm": "Aval", "rad_av_tm": "2022-EE-15991", "link_av_tm": "No aplica", "direccion": "CL 59A SUR 76A 82", "area_ha": "2.4", "chip": "AAA0018PUZM", "latitud": "4.592632029004255", "longitud": "-74.1819651923028", "link_loc": "https://www.google.com/maps/place/Estacion+Gasolina+Texaco/@4.5928449,-74.1809326,262m/data=!3m1!1e3!4m6!3m5!1s0x8e3fa6ab37919f55:0x512d3a6ec9371666!4b1!8m2!3d4.4676796!4d-74.1284436", "est_ener": "Electrico", "clas_ener": "2", "cap_eq_pad": "133", "cap_eq_bia": "0", "cap_total": "133", "uso_pad_eq": "133", "uso_bia_eq": "0", "uso_total": "133", "ind_ocup": "1.0", "ind_a_bus": "180.0", "comp": "2", "esta_oper": 1, "globalid": "{E63BAF83-C472-4827-BFB3-64D67446B792}", "Clase": "8" }, "geometry": { "type": "Point", "coordinates": [ 988409.399628628045321, 999606.206629800610244 ] } },
{ "type": "Feature", "properties": { "objectid": 48, "id_patio": "PZ050", "nom_patio": "Usme II", "prop_suelo": "Usme Ze S.A.S.", "servicio": "Zonal (UCE)", "compartido": "No", "tip_patio": "Definitivo", "form_tm": "Aval", "rad_av_tm": "2022-EE-05187", "link_av_tm": "No aplica", "direccion": "CL 137 SUR 1a", "area_ha": "3.9", "chip": "AAA0142ZNZE", "latitud": "4.470804392892267", "longitud": "-74.12210954567881", "link_loc": "https://www.google.com/maps/place/Estacion+Gasolina+Texaco/@4.4710995,-74.1236995,156m/data=!3m1!1e3!4m5!3m4!1s0x8e3fa6ab37919f55:0x512d3a6ec9371666!8m2!3d4.4676796!4d-74.1284436", "est_ener": "Electrico", "clas_ener": "2", "cap_eq_pad": "203", "cap_eq_bia": "0", "cap_total": "203", "uso_pad_eq": "203", "uso_bia_eq": "0", "uso_total": "203", "ind_ocup": "1.0", "ind_a_bus": "192.0", "comp": "2", "esta_oper": 1, "globalid": "{F9A1747F-A25B-4737-B3A3-094EBD7CC114}", "Clase": "9" }, "geometry": { "type": "Point", "coordinates": [ 995050.488231880706735, 986133.696673397324048 ] } },
{ "type": "Feature", "properties": { "objectid": 49, "id_patio": "PZ048", "nom_patio": "Venecia", "prop_suelo": "ZMP fontibón V S.A.S", "servicio": "Zonal (UCE)", "compartido": "No", "tip_patio": "Definitivo", "form_tm": "Aval", "rad_av_tm": "2022-EE-06010", "link_av_tm": "https://gis.transmilenio.gov.co/linkRadicadoAvalTM/PZ048_UF17_-_FONTIBON_V_-_VENECIA.pdf", "direccion": "AC 31 135B 20", "area_ha": "2.0", "chip": "AAA0140JXBS", "latitud": "4.700679907198547", "longitud": "-74.1631690613103", "link_loc": "https://www.google.com/maps/place/Green+Movil/@4.7004667,-74.1621504,65m/data=!3m1!1e3!4m5!3m4!1s0x8e3f9d961a5184e3:0x3d32655de4fcd8bc!8m2!3d4.7004939!4d-74.1621875", "est_ener": "Electrico", "clas_ener": "2", "cap_eq_pad": "148", "cap_eq_bia": "0", "cap_total": "166", "uso_pad_eq": "148", "uso_bia_eq": "0", "uso_total": "148", "ind_ocup": "1.0", "ind_a_bus": "120.0", "comp": "2", "esta_oper": 1, "globalid": "{37F7A9FD-7A07-4010-8E84-A002BE9FB4BD}", "Clase": "7" }, "geometry": { "type": "Point", "coordinates": [ 990496.495683667133562, 1011554.05401947023347 ] } }
]
}
