{
"type": "FeatureCollection",
"name": "13_Buffer_3km_Estaciones_adicionales",
"crs": { "type": "name", "properties": { "name": "urn:ogc:def:crs:EPSG::3116" } },
"features": [
{ "type": "Feature", "properties": { "id": 1, "Nombre": "La Alhambra" }, "geometry": { "type": "MultiPolygon", "coordinates": [ [ [ [ 1005208.329703699913807, 1011361.569758473429829 ], [ 1005061.499252585344948, 1010434.518775348551571 ], [ 1004635.380686824792065, 1009598.214001595973969 ], [ 1003971.685460577369668, 1008934.518775348551571 ], [ 1003135.380686824792065, 1008508.400209587998688 ], [ 1002208.329703699913807, 1008361.569758473429829 ], [ 1001281.27872057503555, 1008508.400209587998688 ], [ 1000444.973946822457947, 1008934.518775348551571 ], [ 999781.27872057503555, 1009598.214001595973969 ], [ 999355.160154814482667, 1010434.518775348551571 ], [ 999208.329703699913807, 1011361.569758473429829 ], [ 999355.160154814482667, 1012288.620741598308086 ], [ 999781.27872057503555, 1013124.925515350885689 ], [ 1000444.973946822457947, 1013788.620741598308086 ], [ 1001281.27872057503555, 1014214.73930735886097 ], [ 1002208.329703699913807, 1014361.569758473429829 ], [ 1003135.380686824792065, 1014214.73930735886097 ], [ 1003971.685460577369668, 1013788.620741598308086 ], [ 1004635.380686824792065, 1013124.925515350885689 ], [ 1005061.499252585344948, 1012288.620741598308086 ], [ 1005208.329703699913807, 1011361.569758473429829 ] ] ] ] } },
{ "type": "Feature", "properties": { "id": 2, "Nombre": "Bolera el Salitre" }, "geometry": { "type": "MultiPolygon", "coordinates": [ [ [ [ 1000847.698348868405446, 1007901.504642167245038 ], [ 1000700.867897753836587, 1006974.45365904236678 ], [ 1000274.749331993283704, 1006138.148885289789177 ], [ 999611.054105745861307, 1005474.45365904236678 ], [ 998774.749331993283704, 1005048.335093281813897 ], [ 997847.698348868405446, 1004901.504642167245038 ], [ 996920.647365743527189, 1005048.335093281813897 ], [ 996084.342591990949586, 1005474.45365904236678 ], [ 995420.647365743527189, 1006138.148885289789177 ], [ 994994.528799982974306, 1006974.45365904236678 ], [ 994847.698348868405446, 1007901.504642167245038 ], [ 994994.528799982974306, 1008828.555625292123295 ], [ 995420.647365743527189, 1009664.860399044700898 ], [ 996084.342591990949586, 1010328.555625292123295 ], [ 996920.647365743527189, 1010754.674191052676179 ], [ 997847.698348868405446, 1010901.504642167245038 ], [ 998774.749331993283704, 1010754.674191052676179 ], [ 999611.054105745861307, 1010328.555625292123295 ], [ 1000274.749331993283704, 1009664.860399044700898 ], [ 1000700.867897753836587, 1008828.555625292123295 ], [ 1000847.698348868405446, 1007901.504642167245038 ] ] ] ] } }
]
}
